OBJECT_NAME,OBJECT_ID,EPOCH,MEAN_MOTION,ECCENTRICITY,INCLINATION,RA_OF_ASC_NODE,ARG_OF_PERICENTER,MEAN_ANOMALY,EPHEMERIS_TYPE,CLASSIFICATION_TYPE,NORAD_CAT_ID,ELEMENT_SET_NO,REV_AT_EPOCH,BSTAR,MEAN_MOTION_DOT,MEAN_MOTION_DDOT
STARLINK-30180,2023-105F,2024-09-23T09:10:10.421184,15.02539332,.00013,43.0050,274.4082,273.9186,86.1508,0,U,57435,999,6554,.15688E-3,.1916E-4,0
STARLINK-30183,2023-105G,2024-09-23T07:24:51.269472,15.02540754,.0001201,43.0034,274.7206,267.2040,92.8665,0,U,57436,999,6548,.1731E-3,.2136E-4,0
STARLINK-30237,2023-105H,2024-09-23T08:50:59.505792,15.02537503,.0001211,43.0028,274.3096,266.3974,93.6730,0,U,57437,999,6548,.12112E-3,.1433E-4,0
STARLINK-30158,2023-105J,2024-09-23T08:55:47.195328,15.02535360,.0001195,43.0037,274.3327,263.0902,96.9805,0,U,57438,999,6548,.79226E-4,.867E-5,0
STARLINK-30173,2023-105K,2024-09-23T07:49:05.123136,15.02538253,.0001013,43.0019,261.2698,272.0906,87.9821,0,U,57439,999,6563,.78646E-4,.859E-5,0
STARLINK-30159,2023-105L,2024-09-23T08:46:12.609408,15.02526892,.0001091,43.0032,274.2813,282.4559,77.6161,0,U,57440,999,6532,-.55565E-4,-.954E-5,0
STARLINK-30160,2023-105M,2024-09-23T08:41:24.086112,15.02546184,.0001411,43.0021,274.2589,273.8641,86.2040,0,U,57441,999,6532,.39873E-3,.5188E-4,0
STARLINK-30146,2023-105N,2024-09-23T07:00:52.945344,15.02537335,.0001255,43.0036,274.5964,265.3296,94.7403,0,U,57442,999,6553,.12978E-3,.155E-4,0
STARLINK-30197,2023-105P,2024-09-23T06:56:05.494272,15.02533724,.0001013,43.0028,274.5683,273.5263,86.5463,0,U,57443,999,6547,.22159E-4,.96E-6,0
STARLINK-30181,2023-105Q,2024-09-23T01:49:43.104576,15.02541947,.0001226,43.0038,275.5554,269.1116,90.9586,0,U,57444,999,6550,.81498E-4,.898E-5,0
STARLINK-30215,2023-105R,2024-09-23T00:20:23.353152,15.02532223,.0001066,43.0031,275.9452,270.9247,89.1473,0,U,57445,999,6527,.10303E-3,.1188E-4,0
STARLINK-30162,2023-105S,2024-09-23T08:08:15.729216,15.02543334,.0001427,43.0027,261.3510,281.9291,78.1391,0,U,57446,999,6563,.32614E-3,.4205E-4,0
STARLINK-30196,2023-105U,2024-09-23T08:03:02.543040,15.02542203,.0002192,43.0047,274.0564,276.0560,84.0033,0,U,57448,999,6532,.22007E-3,.2771E-4,0
STARLINK-30217,2023-105W,2024-09-23T07:44:17.630592,15.02542391,.0001261,43.0052,261.2748,273.5197,86.5501,0,U,57450,999,6563,.12055E-3,.1425E-4,0
STARLINK-30216,2023-105X,2024-09-23T07:53:28.012416,15.02532528,.000089,43.0050,274.0230,270.3785,89.6955,0,U,57451,999,6532,.53178E-4,.515E-5,0
STARLINK-30165,2023-107A,2024-09-23T05:22:50.159424,15.02536848,.0001194,43.0052,352.5062,266.8274,93.2432,0,U,57457,999,6500,.12035E-3,.1422E-4,0
STARLINK-30140,2023-107B,2024-09-23T06:53:46.087008,15.02541491,.0001176,43.0042,352.1197,270.5717,89.4990,0,U,57458,999,6502,.14015E-3,.169E-4,0
STARLINK-30185,2023-107C,2024-09-23T13:11:53.697984,15.02532124,.000118,43.0055,350.6498,269.9285,90.1422,0,U,57459,999,6506,.12871E-3,.1535E-4,0
STARLINK-30077,2023-107D,2024-09-23T13:07:04.695168,15.02553146,.0000656,43.0030,350.6243,222.8336,137.2455,0,U,57460,999,6506,.12761E-3,.1521E-4,0
STARLINK-30229,2023-107E,2024-09-23T07:03:21.549024,15.02537134,.0001136,43.0038,352.1656,262.4742,97.5971,0,U,57461,999,6502,.70512E-4,.749E-5,0
STARLINK-30088,2023-107F,2024-09-23T14:38:02.932224,15.02522123,.0001395,43.0046,350.2371,263.8586,96.2097,0,U,57462,999,6507,.26076E-3,.3319E-4,0
STARLINK-30091,2023-107G,2024-09-23T12:52:42.341952,15.02539216,.000092,43.0042,350.5494,271.0045,89.0692,0,U,57463,999,6506,.15067E-3,.1832E-4,0
STARLINK-30115,2023-107H,2024-09-23T13:03:27.624672,15.06513077,.0005313,43.0004,349.7129,25.5429,334.5676,0,U,57464,999,6507,.23954E-2,.35978E-3,0
STARLINK-30116,2023-107J,2024-09-23T12:54:18.738432,15.02535003,.0001345,43.0061,350.5587,272.6210,87.4478,0,U,57465,999,6506,.79246E-4,.867E-5,0
STARLINK-30092,2023-107L,2024-09-23T14:18:50.202432,15.02542893,.0001469,43.0035,350.1359,266.8405,93.2269,0,U,57467,999,6507,.49775E-4,.469E-5,0
STARLINK-30039,2023-107M,2024-09-23T12:38:19.628448,15.02543171,.0001695,43.0062,350.4720,271.9567,88.1081,0,U,57468,999,6506,.17027E-4,.26E-6,0
STARLINK-30171,2023-107N,2024-09-23T12:28:43.990176,15.02541596,.0000944,43.0027,350.4227,253.0060,107.0678,0,U,57469,999,6506,.16132E-3,.1977E-4,0
STARLINK-30186,2023-107P,2024-09-23T12:33:31.771296,15.02539805,.0001532,43.0029,350.4463,267.2388,92.8279,0,U,57470,999,6506,.28357E-3,.3629E-4,0
