STARLINK-30180          
1 57435U 23105F   24267.38206506  .00001916  00000+0  15688-3 0  9993
2 57435  43.0050 274.4082 0001300 273.9186  86.1508 15.02539332 65546
STARLINK-30183          
1 57436U 23105G   24267.30892673  .00002136  00000+0  17310-3 0  9991
2 57436  43.0034 274.7206 0001201 267.2040  92.8665 15.02540754 65486
STARLINK-30237          
1 57437U 23105H   24267.36874428  .00001433  00000+0  12112-3 0  9990
2 57437  43.0028 274.3096 0001211 266.3974  93.6730 15.02537503 65480
STARLINK-30158          
1 57438U 23105J   24267.37207402  .00000867  00000+0  79226-4 0  9994
2 57438  43.0037 274.3327 0001195 263.0902  96.9805 15.02535360 65482
STARLINK-30173          
1 57439U 23105K   24267.32575374  .00000859  00000+0  78646-4 0  9992
2 57439  43.0019 261.2698 0001013 272.0906  87.9821 15.02538253 65631
STARLINK-30159          
1 57440U 23105L   24267.36542372 -.00000954  00000+0 -55565-4 0  9993
2 57440  43.0032 274.2813 0001091 282.4559  77.6161 15.02526892 65321
STARLINK-30160          
1 57441U 23105M   24267.36208433  .00005188  00000+0  39873-3 0  9996
2 57441  43.0021 274.2589 0001411 273.8641  86.2040 15.02546184 65320
STARLINK-30146          
1 57442U 23105N   24267.29227946  .00001550  00000+0  12978-3 0  9995
2 57442  43.0036 274.5964 0001255 265.3296  94.7403 15.02537335 65533
STARLINK-30197          
1 57443U 23105P   24267.28895248  .00000096  00000+0  22159-4 0  9998
2 57443  43.0028 274.5683 0001013 273.5263  86.5463 15.02533724 65476
STARLINK-30181          
1 57444U 23105Q   24267.07619334  .00000898  00000+0  81498-4 0  9997
2 57444  43.0038 275.5554 0001226 269.1116  90.9586 15.02541947 65505
STARLINK-30215          
1 57445U 23105R   24267.01415918  .00001188  00000+0  10303-3 0  9993
2 57445  43.0031 275.9452 0001066 270.9247  89.1473 15.02532223 65273
STARLINK-30162          
1 57446U 23105S   24267.33907094  .00004205  00000+0  32614-3 0  9992
2 57446  43.0027 261.3510 0001427 281.9291  78.1391 15.02543334 65637
STARLINK-30196          
1 57448U 23105U   24267.33544610  .00002771  00000+0  22007-3 0  9996
2 57448  43.0047 274.0564 0002192 276.0560  84.0033 15.02542203 65324
STARLINK-30217          
1 57450U 23105W   24267.32242628  .00001425  00000+0  12055-3 0  9999
2 57450  43.0052 261.2748 0001261 273.5197  86.5501 15.02542391 65649
STARLINK-30216          
1 57451U 23105X   24267.32879644  .00000515  00000+0  53178-4 0  9995
2 57451  43.0050 274.0230 0000890 270.3785  89.6955 15.02532528 65324
STARLINK-30165          
1 57457U 23107A   24267.22419166  .00001422  00000+0  12035-3 0  9995
2 57457  43.0052 352.5062 0001194 266.8274  93.2432 15.02536848 65003
STARLINK-30140          
1 57458U 23107B   24267.28733897  .00001690  00000+0  14015-3 0  9999
2 57458  43.0042 352.1197 0001176 270.5717  89.4990 15.02541491 65020
STARLINK-30185          
1 57459U 23107C   24267.54992706  .00001535  00000+0  12871-3 0  9991
2 57459  43.0055 350.6498 0001180 269.9285  90.1422 15.02532124 65043
STARLINK-30077          
1 57460U 23107D   24267.54658212  .00001521  00000+0  12761-3 0  9997
2 57460  43.0030 350.6243 0000656 222.8336 137.2455 15.02553146 65066
STARLINK-30229          
1 57461U 23107E   24267.29399941  .00000749  00000+0  70512-4 0  9991
2 57461  43.0038 352.1656 0001136 262.4742  97.5971 15.02537134 65021
STARLINK-30088          
1 57462U 23107F   24267.60975616  .00003319  00000+0  26076-3 0  9997
2 57462  43.0046 350.2371 0001395 263.8586  96.2097 15.02522123 65074
STARLINK-30091          
1 57463U 23107G   24267.53660118  .00001832  00000+0  15067-3 0  9994
2 57463  43.0042 350.5494 0000920 271.0045  89.0692 15.02539216 65065
STARLINK-30115          
1 57464U 23107H   24267.54406973  .00035978  00000+0  23954-2 0  9994
2 57464  43.0004 349.7129 0005313  25.5429 334.5676 15.06513077 65070
STARLINK-30116          
1 57465U 23107J   24267.53771688  .00000867  00000+0  79246-4 0  9998
2 57465  43.0061 350.5587 0001345 272.6210  87.4478 15.02535003 65068
STARLINK-30092          
1 57467U 23107L   24267.59641438  .00000469  00000+0  49775-4 0  9997
2 57467  43.0035 350.1359 0001469 266.8405  93.2269 15.02542893 65071
STARLINK-30039          
1 57468U 23107M   24267.52661607  .00000026  00000+0  17027-4 0  9995
2 57468  43.0062 350.4720 0001695 271.9567  88.1081 15.02543171 65068
STARLINK-30171          
1 57469U 23107N   24267.51995359  .00001977  00000+0  16132-3 0  9990
2 57469  43.0027 350.4227 0000944 253.0060 107.0678 15.02541596 65069
STARLINK-30186          
1 57470U 23107P   24267.52328439  .00003629  00000+0  28357-3 0  9990
2 57470  43.0029 350.4463 0001532 267.2388  92.8279 15.02539805 65067
